COSMOS 2433 (720)       
1 32275U 07052A   22080.23228634 -.00000055  00000+0  00000+0 0  9994
2 32275  66.0838   7.5968 0003658 282.3193 338.0926  2.13104098112088
COSMOS 2432 (719)       
1 32276U 07052B   22080.63958801 -.00000056  00000+0  00000+0 0  9996
2 32276  66.0969   7.6831 0011966 328.0382 193.3896  2.13103499112096
COSMOS 2434 (721)       
1 32393U 07065A   22080.97639679  .00000065  00000+0  00000+0 0  9995
2 32393  64.4015 244.4114 0004978  77.8541 282.6633  2.13103173110814
COSMOS 2436 (723)       
1 32395U 07065C   22080.16263841  .00000061  00000+0  00000+0 0  9998
2 32395  64.4096 244.4952 0016348   8.1279 224.0254  2.13103035110720
COSMOS 2456 (730)       
1 36111U 09070A   22080.28299727  .00000054  00000+0  00000+0 0  9993
2 36111  64.3297 124.0821 0005121 300.5012  54.8535  2.13099185 95454
COSMOS 2457 (733)       
1 36112U 09070B   22081.09287103  .00000047  00000+0  00000+0 0  9991
2 36112  64.3130 123.9321 0004751 186.9900 196.2650  2.13101371 95487
COSMOS 2461 (735)       
1 36401U 10007B   22081.16501870 -.00000059  00000+0  00000+0 0  9996
2 36401  65.9709   6.4162 0021975   3.8713 109.6117  2.13103860 93839
COSMOS 2460 (732)       
1 36402U 10007C   22080.27499940 -.00000056  00000+0  00000+0 0  9999
2 36402  65.9580   6.3979 0002137 339.9796 118.2976  2.13106484 93817
COSMOS 2464 (736)       
1 37139U 10041C   22080.89574157  .00000064  00000+0  00000+0 0  9995
2 37139  64.0005 243.5329 0030047  14.2853 143.2357  2.13100757 89889
COSMOS 2476 (744)       
1 37867U 11064A   22081.12187663  .00000047  00000+0  00000+0 0  9999
2 37867  64.6201 125.3756 0022597 238.7558 304.9109  2.13101862 80822
COSMOS 2477 (745)       
1 37868U 11064B   22080.27148275  .00000055  00000+0  00000+0 0  9990
2 37868  64.6275 125.4680 0020049 240.4127 189.0245  2.13101735 80768
COSMOS 2475 (743)       
1 37869U 11064C   22080.34509903  .00000054  00000+0  00000+0 0  9997
2 37869  64.6349 125.4728 0024256 257.1280 186.7097  2.13101832 80771
COSMOS 2485 (747)       
1 39155U 13019A   22080.82014910  .00000050  00000+0  00000+0 0  9997
2 39155  64.7839 125.7952 0023052 235.2893 121.3077  2.13101882 69289
COSMOS 2492 (754)       
1 39620U 14012A   22080.90251503 -.00000058  00000+0  00000+0 0  9997
2 39620  65.8445   6.0706 0014977 325.0794 129.2676  2.13103216 62247
COSMOS 2500 (755)       
1 40001U 14032A   22081.17251875 -.00000059  00000+0  00000+0 0  9997
2 40001  65.7846   5.9295 0005196 221.9791 298.4010  2.13102491 60468
COSMOS 2501 (702K)      
1 40315U 14075A   22080.88968279  .00000064  00000+0  00000+0 0  9997
2 40315  63.7090 244.2356 0016407 205.0974 265.8637  2.13101409 56864
COSMOS 2514 (751)       
1 41330U 16008A   22080.74882685 -.00000058  00000+0  00000+0 0  9998
2 41330  65.5848   5.6573 0009060 224.4411 154.5699  2.13102851 47629
COSMOS 2516 (753)       
1 41554U 16032A   22080.14043329  .00000060  00000+0  00000+0 0  9993
2 41554  63.9344 244.5130 0012289 211.0317 322.2195  2.13106235 45215
COSMOS 2522 (752)       
1 42939U 17055A   22080.34692152  .00000061  00000+0  00000+0 0  9994
2 42939  64.1691 244.8750 0005170 240.4220 309.4894  2.13102033 34978
COSMOS 2527 (756)       
1 43508U 18053A   22080.56652432  .00000053  00000+0  00000+0 0  9998
2 43508  64.9477 125.7856 0009226 236.6097 153.8751  2.13102585 29272
COSMOS 2529 (757)       
1 43687U 18086A   22080.87766891  .00000065  00000+0  00000+0 0  9994
2 43687  64.3827 245.1499 0007248 274.9013 277.6884  2.13102098 26298
COSMOS 2534 (758)       
1 44299U 19030A   22080.24994218  .00000061  00000+0  00000+0 0  9997
2 44299  64.4550 245.0473 0010557 297.5499 268.0951  2.13102016 21923
COSMOS 2544 (759)       
1 44850U 19088A   22080.43746889  .00000054  00000+0  00000+0 0  9995
2 44850  64.9330 125.6431 0013749 260.9295  74.0845  2.13102384 17692
COSMOS 2545 (760)       
1 45358U 20018A   22081.19005006 -.00000060  00000+0  00000+0 0  9995
2 45358  64.9217   6.3216 0009322 261.8209 140.1523  2.13102766 15671
COSMOS 2547 (705K)      
1 46805U 20075A   22080.13864858  .00000061  00000+0  00000+0 0  9997
2 46805  64.6782 244.4494 0005211 245.3988 282.2440  2.13103103 10891
